{"fetched_at":"2026-03-29T16:36:15Z","count":15609,"tles":[{"name":"STARLINK-33625","line1":"1 63327U 25057W   26087.83665637  .00029310  00000+0  10697-2 0  9996","line2":"2 63327  43.0035 275.1130 0001535 271.4993  88.5683 15.27600954 58792","category":"Starlink"}]}